start=new Date('2022-07-16T00:00:00.000Z').valueOf();
sats=[{"CLASSIFICATION_TYPE":"U","REF_FRAME":"TEME","MEAN_MOTION":"15.08289950","EPHEMERIS_TYPE":"0","TLE_LINE1":"1 45762U 20038AJ  22196.84138584  .00001989  00000-0  14511-3 0  9990","MEAN_ANOMALY":"293.9274","RCS_SIZE":"LARGE","TLE_LINE2":"2 45762  53.0553  79.2159 0002028  66.1928 293.9274 15.08289950115600","OBJECT_NAME":"STARLINK-1499","GP_ID":"208199468","RA_OF_ASC_NODE":"79.2159","COUNTRY_CODE":"US","MEAN_ELEMENT_THEORY":"SGP4","APOAPSIS":"542.830","CENTER_NAME":"EARTH","ECCENTRICITY":"0.00020280","BSTAR":"0.00014511000000","NORAD_CAT_ID":"45762","EPOCH":"2022-07-15T20:11:35.736576","SEMIMAJOR_AXIS":"6919.562","PERIAPSIS":"540.024","OBJECT_TYPE":"PAYLOAD","DECAY_DATE":null,"INCLINATION":"53.0553","FILE":"3514839","PERIOD":"95.472","SITE":"AFETR","ARG_OF_PERICENTER":"66.1928","ELEMENT_SET_NO":"999","OBJECT_ID":"2020-038AJ","MEAN_MOTION_DOT":"0.00001989","TIME_SYSTEM":"UTC","MEAN_MOTION_DDOT":"0.0000000000000","LAUNCH_DATE":"2020-06-13","REV_AT_EPOCH":"11560"},{"EPHEMERIS_TYPE":"0","TLE_LINE1":"1 45763U 20038AK  22196.66746273  .00138870  18135-4  45602-3 0  9998","MEAN_ANOMALY":"304.1907","CLASSIFICATION_TYPE":"U","REF_FRAME":"TEME","MEAN_MOTION":"15.90286552","RCS_SIZE":"LARGE","TLE_LINE2":"2 45763  53.0379 255.4410 0007216  55.9802 304.1907 15.90286552118344","MEAN_ELEMENT_THEORY":"SGP4","COUNTRY_CODE":"US","APOAPSIS":"306.302","ECCENTRICITY":"0.00072160","CENTER_NAME":"EARTH","OBJECT_NAME":"STARLINK-1501","GP_ID":"208199718","RA_OF_ASC_NODE":"255.4410","BSTAR":"0.00045602000000","NORAD_CAT_ID":"45763","EPOCH":"2022-07-15T16:01:08.779872","SEMIMAJOR_AXIS":"6679.617","INCLINATION":"53.0379","FILE":"3514839","PERIAPSIS":"296.662","OBJECT_TYPE":"PAYLOAD","DECAY_DATE":null,"PERIOD":"90.550","SITE":"AFETR","ARG_OF_PERICENTER":"55.9802","ELEMENT_SET_NO":"999","LAUNCH_DATE":"2020-06-13","REV_AT_EPOCH":"11834","OBJECT_ID":"2020-038AK","MEAN_MOTION_DOT":"0.00138870","TIME_SYSTEM":"UTC","MEAN_MOTION_DDOT":"0.0000181350000"},{"RCS_SIZE":"LARGE","TLE_LINE2":"2 45764  53.0544  80.0003 0001603  71.8244 288.2919 15.06403800115593","CLASSIFICATION_TYPE":"U","MEAN_MOTION":"15.06403800","REF_FRAME":"TEME","TLE_LINE1":"1 45764U 20038AL  22196.84442133  .00006365  00000-0  44576-3 0  9997","EPHEMERIS_TYPE":"0","MEAN_ANOMALY":"288.2919","BSTAR":"0.00044576000000","NORAD_CAT_ID":"45764","GP_ID":"208200969","OBJECT_NAME":"STARLINK-1502","RA_OF_ASC_NODE":"80.0003","APOAPSIS":"548.312","COUNTRY_CODE":"US","MEAN_ELEMENT_THEORY":"SGP4","ECCENTRICITY":"0.00016030","CENTER_NAME":"EARTH","OBJECT_TYPE":"PAYLOAD","PERIAPSIS":"546.092","DECAY_DATE":null,"FILE":"3514839","INCLINATION":"53.0544","SEMIMAJOR_AXIS":"6925.337","EPOCH":"2022-07-15T20:15:58.002912","MEAN_MOTION_DOT":"0.00006365","OBJECT_ID":"2020-038AL","MEAN_MOTION_DDOT":"0.0000000000000","TIME_SYSTEM":"UTC","REV_AT_EPOCH":"11559","LAUNCH_DATE":"2020-06-13","PERIOD":"95.592","ARG_OF_PERICENTER":"71.8244","ELEMENT_SET_NO":"999","SITE":"AFETR"},{"CLASSIFICATION_TYPE":"U","MEAN_MOTION":"15.06399806","REF_FRAME":"TEME","EPHEMERIS_TYPE":"0","TLE_LINE1":"1 45766U 20038AN  22196.89970642  .00001561  00000-0  12368-3 0  9992","MEAN_ANOMALY":"297.1328","RCS_SIZE":"LARGE","TLE_LINE2":"2 45766  53.0550  79.7414 0001572  62.9821 297.1328 15.06399806115582","OBJECT_NAME":"STARLINK-1509","GP_ID":"208201220","RA_OF_ASC_NODE":"79.7414","APOAPSIS":"548.303","COUNTRY_CODE":"US","MEAN_ELEMENT_THEORY":"SGP4","ECCENTRICITY":"0.00015720","CENTER_NAME":"EARTH","BSTAR":"0.00012368000000","NORAD_CAT_ID":"45766","SEMIMAJOR_AXIS":"6925.349","EPOCH":"2022-07-15T21:35:34.634688","OBJECT_TYPE":"PAYLOAD","PERIAPSIS":"546.125","DECAY_DATE":null,"FILE":"3514839","INCLINATION":"53.0550","PERIOD":"95.592","ARG_OF_PERICENTER":"62.9821","ELEMENT_SET_NO":"999","SITE":"AFETR","MEAN_MOTION_DOT":"0.00001561","OBJECT_ID":"2020-038AN","MEAN_MOTION_DDOT":"0.0000000000000","TIME_SYSTEM":"UTC","REV_AT_EPOCH":"11558","LAUNCH_DATE":"2020-06-13"},{"OBJECT_NAME":"STARLINK-1511","GP_ID":"208199968","RA_OF_ASC_NODE":"79.7925","COUNTRY_CODE":"US","MEAN_ELEMENT_THEORY":"SGP4","APOAPSIS":"548.224","CENTER_NAME":"EARTH","ECCENTRICITY":"0.00014440","BSTAR":"0.00024157000000","NORAD_CAT_ID":"45767","CLASSIFICATION_TYPE":"U","REF_FRAME":"TEME","MEAN_MOTION":"15.06396716","EPHEMERIS_TYPE":"0","TLE_LINE1":"1 45767U 20038AP  22196.89233138  .00003318  00000-0  24157-3 0  9996","MEAN_ANOMALY":"291.2999","RCS_SIZE":"LARGE","TLE_LINE2":"2 45767  53.0559  79.7925 0001444  68.8144 291.2999 15.06396716115586","PERIOD":"95.592","SITE":"AFETR","ELEMENT_SET_NO":"999","ARG_OF_PERICENTER":"68.8144","OBJECT_ID":"2020-038AP","MEAN_MOTION_DOT":"0.00003318","TIME_SYSTEM":"UTC","MEAN_MOTION_DDOT":"0.0000000000000","LAUNCH_DATE":"2020-06-13","REV_AT_EPOCH":"11558","EPOCH":"2022-07-15T21:24:57.431232","SEMIMAJOR_AXIS":"6925.359","OBJECT_TYPE":"PAYLOAD","PERIAPSIS":"546.224","DECAY_DATE":null,"FILE":"3514839","INCLINATION":"53.0559"},{"INCLINATION":"53.0535","FILE":"3514839","PERIAPSIS":"546.080","OBJECT_TYPE":"PAYLOAD","DECAY_DATE":null,"EPOCH":"2022-07-15T20:58:25.810176","SEMIMAJOR_AXIS":"6925.346","LAUNCH_DATE":"2020-06-13","REV_AT_EPOCH":"11559","OBJECT_ID":"2020-038AQ","MEAN_MOTION_DOT":"0.00004208","TIME_SYSTEM":"UTC","MEAN_MOTION_DDOT":"0.0000000000000","PERIOD":"95.592","SITE":"AFETR","ARG_OF_PERICENTER":"75.4512","ELEMENT_SET_NO":"999","RCS_SIZE":"LARGE","TLE_LINE2":"2 45768  53.0535  79.8581 0001632  75.4512 284.6658 15.06400947115593","EPHEMERIS_TYPE":"0","TLE_LINE1":"1 45768U 20038AQ  22196.87390984  .00004208  00000-0  30121-3 0  9995","MEAN_ANOMALY":"284.6658","CLASSIFICATION_TYPE":"U","REF_FRAME":"TEME","MEAN_MOTION":"15.06400947","BSTAR":"0.00030121000000","NORAD_CAT_ID":"45768","COUNTRY_CODE":"US","MEAN_ELEMENT_THEORY":"SGP4","APOAPSIS":"548.341","ECCENTRICITY":"0.00016320","CENTER_NAME":"EARTH","GP_ID":"208200218","OBJECT_NAME":"STARLINK-1521","RA_OF_ASC_NODE":"79.8581"},{"ARG_OF_PERICENTER":"73.8349","ELEMENT_SET_NO":"999","SITE":"AFETR","PERIOD":"95.591","MEAN_MOTION_DDOT":"0.0000000000000","TIME_SYSTEM":"UTC","MEAN_MOTION_DOT":"0.00012559","OBJECT_ID":"2020-038AR","REV_AT_EPOCH":"11531","LAUNCH_DATE":"2020-06-13","SEMIMAJOR_AXIS":"6925.315","EPOCH":"2022-07-15T21:32:56.246208","DECAY_DATE":null,"OBJECT_TYPE":"PAYLOAD","PERIAPSIS":"545.999","INCLINATION":"53.0539","FILE":"3514839","RA_OF_ASC_NODE":"99.7700","OBJECT_NAME":"STARLINK-1459","GP_ID":"208200469","CENTER_NAME":"EARTH","ECCENTRICITY":"0.00017060","APOAPSIS":"548.362","MEAN_ELEMENT_THEORY":"SGP4","COUNTRY_CODE":"US","NORAD_CAT_ID":"45769","BSTAR":"0.00086029000000","MEAN_MOTION":"15.06410875","REF_FRAME":"TEME","CLASSIFICATION_TYPE":"U","MEAN_ANOMALY":"286.2828","TLE_LINE1":"1 45769U 20038AR  22196.89787322  .00012559  00000-0  86029-3 0  9990","EPHEMERIS_TYPE":"0","TLE_LINE2":"2 45769  53.0539  99.7700 0001706  73.8349 286.2828 15.06410875115312","RCS_SIZE":"LARGE"},{"EPOCH":"2022-07-15T21:36:52.545024","SEMIMAJOR_AXIS":"6925.319","DECAY_DATE":null,"PERIAPSIS":"546.129","OBJECT_TYPE":"PAYLOAD","INCLINATION":"53.0555","FILE":"3514839","SITE":"AFETR","ARG_OF_PERICENTER":"62.8562","ELEMENT_SET_NO":"999","PERIOD":"95.592","TIME_SYSTEM":"UTC","MEAN_MOTION_DDOT":"0.0000000000000","OBJECT_ID":"2020-038AS","MEAN_MOTION_DOT":"0.00009101","LAUNCH_DATE":"2020-06-13","REV_AT_EPOCH":"11586","REF_FRAME":"TEME","MEAN_MOTION":"15.06409562","CLASSIFICATION_TYPE":"U","MEAN_ANOMALY":"297.2582","EPHEMERIS_TYPE":"0","TLE_LINE1":"1 45770U 20038AS  22196.90060816  .00009101  00000-0  62893-3 0  9998","TLE_LINE2":"2 45770  53.0555  59.7425 0001524  62.8562 297.2582 15.06409562115865","RCS_SIZE":"LARGE","RA_OF_ASC_NODE":"59.7425","GP_ID":"208200720","OBJECT_NAME":"STARLINK-1462","ECCENTRICITY":"0.00015240","CENTER_NAME":"EARTH","COUNTRY_CODE":"US","MEAN_ELEMENT_THEORY":"SGP4","APOAPSIS":"548.240","NORAD_CAT_ID":"45770","BSTAR":"0.00062893000000"},{"SEMIMAJOR_AXIS":"6925.367","EPOCH":"2022-07-15T21:27:36.970560","DECAY_DATE":null,"PERIAPSIS":"546.216","OBJECT_TYPE":"PAYLOAD","FILE":"3514839","INCLINATION":"53.0549","ARG_OF_PERICENTER":"78.0511","ELEMENT_SET_NO":"999","SITE":"AFETR","PERIOD":"95.593","MEAN_MOTION_DDOT":"0.0000000000000","TIME_SYSTEM":"UTC","MEAN_MOTION_DOT":"0.00001931","OBJECT_ID":"2020-038AT","REV_AT_EPOCH":"11586","LAUNCH_DATE":"2020-06-13","MEAN_MOTION":"15.06394112","REF_FRAME":"TEME","CLASSIFICATION_TYPE":"U","MEAN_ANOMALY":"282.0643","EPHEMERIS_TYPE":"0","TLE_LINE1":"1 45771U 20038AT  22196.89417790  .00001931  00000-0  14852-3 0  9999","TLE_LINE2":"2 45771  53.0549  59.7862 0001467  78.0511 282.0643 15.06394112115867","RCS_SIZE":"LARGE","RA_OF_ASC_NODE":"59.7862","GP_ID":"208199469","OBJECT_NAME":"STARLINK-1463","ECCENTRICITY":"0.00014670","CENTER_NAME":"EARTH","APOAPSIS":"548.248","COUNTRY_CODE":"US","MEAN_ELEMENT_THEORY":"SGP4","NORAD_CAT_ID":"45771","BSTAR":"0.00014852000000"},{"PERIOD":"95.592","SITE":"AFETR","ELEMENT_SET_NO":"999","ARG_OF_PERICENTER":"90.1686","LAUNCH_DATE":"2020-06-13","REV_AT_EPOCH":"11587","OBJECT_ID":"2020-038AU","MEAN_MOTION_DOT":"0.00002479","TIME_SYSTEM":"UTC","MEAN_MOTION_DDOT":"0.0000000000000","EPOCH":"2022-07-15T21:11:40.725600","SEMIMAJOR_AXIS":"6925.338","INCLINATION":"53.0563","FILE":"3514839","OBJECT_TYPE":"PAYLOAD","PERIAPSIS":"546.220","DECAY_DATE":null,"COUNTRY_CODE":"US","MEAN_ELEMENT_THEORY":"SGP4","APOAPSIS":"548.186","ECCENTRICITY":"0.00014190","CENTER_NAME":"EARTH","OBJECT_NAME":"STARLINK-1470","GP_ID":"208199719","RA_OF_ASC_NODE":"59.8102","BSTAR":"0.00018525000000","NORAD_CAT_ID":"45772","TLE_LINE1":"1 45772U 20038AU  22196.88311025  .00002479  00000-0  18525-3 0  9992","EPHEMERIS_TYPE":"0","MEAN_ANOMALY":"269.9466","CLASSIFICATION_TYPE":"U","REF_FRAME":"TEME","MEAN_MOTION":"15.06403410","RCS_SIZE":"LARGE","TLE_LINE2":"2 45772  53.0563  59.8102 0001419  90.1686 269.9466 15.06403410115877"}];
